start=new Date('2023-04-21T00:00:00.000Z').valueOf();
sats=[{"EPHEMERIS_TYPE":"0","BSTAR":"0.00006005700000","MEAN_ELEMENT_THEORY":"SGP4","DECAY_DATE":null,"MEAN_MOTION_DOT":"0.00000668","MEAN_ANOMALY":"282.5551","INCLINATION":"53.2169","ELEMENT_SET_NO":"999","CLASSIFICATION_TYPE":"U","NORAD_CAT_ID":"53707","ECCENTRICITY":"0.00015570","TLE_LINE2":"2 53707  53.2169 280.4984 0001557  77.5616 282.5551 15.08844106 35952","PERIAPSIS":"538.656","REF_FRAME":"TEME","PERIOD":"95.437","SEMIMAJOR_AXIS":"6917.868","CENTER_NAME":"EARTH","LAUNCH_DATE":"2022-09-05","OBJECT_NAME":"STARLINK-4667","SITE":"AFETR","RCS_SIZE":"LARGE","COUNTRY_CODE":"US","APOAPSIS":"540.810","EPOCH":"2023-04-20T17:46:09.232032","REV_AT_EPOCH":"3595","RA_OF_ASC_NODE":"280.4984","ARG_OF_PERICENTER":"77.5616","TIME_SYSTEM":"UTC","GP_ID":"230461564","FILE":"3891109","OBJECT_ID":"2022-107H","OBJECT_TYPE":"PAYLOAD","MEAN_MOTION":"15.08844106","TLE_LINE1":"1 53707U 22107H   23110.74038463  .00000668  00000-0  60057-4 0  9998","MEAN_MOTION_DDOT":"0.0000000000000"},{"EPHEMERIS_TYPE":"0","BSTAR":"-0.00004688900000","MEAN_ELEMENT_THEORY":"SGP4","MEAN_MOTION_DOT":"-0.00001073","DECAY_DATE":null,"MEAN_ANOMALY":"294.4013","ELEMENT_SET_NO":"999","INCLINATION":"53.2158","CLASSIFICATION_TYPE":"U","NORAD_CAT_ID":"53708","ECCENTRICITY":"0.00010920","REF_FRAME":"TEME","PERIAPSIS":"533.999","TLE_LINE2":"2 53708  53.2158 280.6469 0001092  65.7094 294.4013 15.10474559 35953","SEMIMAJOR_AXIS":"6912.889","PERIOD":"95.334","CENTER_NAME":"EARTH","LAUNCH_DATE":"2022-09-05","OBJECT_NAME":"STARLINK-4694","SITE":"AFETR","RCS_SIZE":"LARGE","COUNTRY_CODE":"US","EPOCH":"2023-04-20T18:20:54.952224","APOAPSIS":"535.509","REV_AT_EPOCH":"3595","ARG_OF_PERICENTER":"65.7094","RA_OF_ASC_NODE":"280.6469","TIME_SYSTEM":"UTC","FILE":"3891109","GP_ID":"230462814","MEAN_MOTION":"15.10474559","OBJECT_ID":"2022-107J","OBJECT_TYPE":"PAYLOAD","MEAN_MOTION_DDOT":"0.0000000000000","TLE_LINE1":"1 53708U 22107J   23110.76452491 -.00001073  00000-0 -46889-4 0  9992"},{"REV_AT_EPOCH":"3537","ARG_OF_PERICENTER":"85.3050","RA_OF_ASC_NODE":"300.0049","TIME_SYSTEM":"UTC","FILE":"3891109","GP_ID":"230463065","MEAN_MOTION":"15.08840800","OBJECT_ID":"2022-107K","OBJECT_TYPE":"PAYLOAD","MEAN_MOTION_DDOT":"0.0000000000000","TLE_LINE1":"1 53709U 22107K   23110.77898936  .00003864  00000-0  26073-3 0  9992","OBJECT_NAME":"STARLINK-4685","SITE":"AFETR","RCS_SIZE":"LARGE","COUNTRY_CODE":"US","EPOCH":"2023-04-20T18:41:44.680704","APOAPSIS":"540.298","ECCENTRICITY":"0.00008030","PERIAPSIS":"539.187","REF_FRAME":"TEME","TLE_LINE2":"2 53709  53.2150 300.0049 0000803  85.3050 274.8033 15.08840800 35379","SEMIMAJOR_AXIS":"6917.878","PERIOD":"95.438","CENTER_NAME":"EARTH","LAUNCH_DATE":"2022-09-05","EPHEMERIS_TYPE":"0","MEAN_ELEMENT_THEORY":"SGP4","BSTAR":"0.00026073000000","MEAN_MOTION_DOT":"0.00003864","DECAY_DATE":null,"MEAN_ANOMALY":"274.8033","ELEMENT_SET_NO":"999","INCLINATION":"53.2150","CLASSIFICATION_TYPE":"U","NORAD_CAT_ID":"53709"},{"TIME_SYSTEM":"UTC","ARG_OF_PERICENTER":"25.0393","RA_OF_ASC_NODE":"300.0709","REV_AT_EPOCH":"3537","MEAN_MOTION_DDOT":"0.0000000000000","TLE_LINE1":"1 53711U 22107M   23110.79004676  .00000402  00000-0  43360-4 0  9991","MEAN_MOTION":"15.08841157","OBJECT_TYPE":"PAYLOAD","OBJECT_ID":"2022-107M","FILE":"3891109","GP_ID":"230461814","RCS_SIZE":"LARGE","SITE":"AFETR","OBJECT_NAME":"STARLINK-4627","APOAPSIS":"540.603","EPOCH":"2023-04-20T18:57:40.040064","COUNTRY_CODE":"US","PERIAPSIS":"538.881","REF_FRAME":"TEME","TLE_LINE2":"2 53711  53.2150 300.0709 0001245  25.0393 335.0659 15.08841157 35377","ECCENTRICITY":"0.00012450","LAUNCH_DATE":"2022-09-05","CENTER_NAME":"EARTH","SEMIMAJOR_AXIS":"6917.877","PERIOD":"95.437","MEAN_MOTION_DOT":"0.00000402","DECAY_DATE":null,"BSTAR":"0.00004336000000","MEAN_ELEMENT_THEORY":"SGP4","EPHEMERIS_TYPE":"0","NORAD_CAT_ID":"53711","CLASSIFICATION_TYPE":"U","ELEMENT_SET_NO":"999","INCLINATION":"53.2150","MEAN_ANOMALY":"335.0659"},{"PERIOD":"95.437","SEMIMAJOR_AXIS":"6917.865","CENTER_NAME":"EARTH","LAUNCH_DATE":"2022-09-05","ECCENTRICITY":"0.00010740","TLE_LINE2":"2 53712  53.2153 300.0423 0001074  80.2209 279.8905 15.08845021 35398","PERIAPSIS":"538.987","REF_FRAME":"TEME","MEAN_ANOMALY":"279.8905","INCLINATION":"53.2153","ELEMENT_SET_NO":"999","CLASSIFICATION_TYPE":"U","NORAD_CAT_ID":"53712","EPHEMERIS_TYPE":"0","MEAN_ELEMENT_THEORY":"SGP4","BSTAR":"0.00014300000000","DECAY_DATE":null,"MEAN_MOTION_DOT":"0.00001989","GP_ID":"230462064","FILE":"3891109","OBJECT_TYPE":"PAYLOAD","OBJECT_ID":"2022-107N","MEAN_MOTION":"15.08845021","TLE_LINE1":"1 53712U 22107N   23110.78363358  .00001989  00000-0  14300-3 0  9998","MEAN_MOTION_DDOT":"0.0000000000000","REV_AT_EPOCH":"3539","RA_OF_ASC_NODE":"300.0423","ARG_OF_PERICENTER":"80.2209","TIME_SYSTEM":"UTC","COUNTRY_CODE":"US","APOAPSIS":"540.473","EPOCH":"2023-04-20T18:48:25.941312","OBJECT_NAME":"STARLINK-4683","SITE":"AFETR","RCS_SIZE":"LARGE"},{"RA_OF_ASC_NODE":"304.6382","ARG_OF_PERICENTER":"79.9603","REV_AT_EPOCH":"3531","TIME_SYSTEM":"UTC","OBJECT_TYPE":"PAYLOAD","OBJECT_ID":"2022-107P","MEAN_MOTION":"15.08841154","GP_ID":"230462315","FILE":"3891109","TLE_LINE1":"1 53713U 22107P   23110.83923905  .00000396  00000-0  42965-4 0  9995","MEAN_MOTION_DDOT":"0.0000000000000","OBJECT_NAME":"STARLINK-4698","RCS_SIZE":"LARGE","SITE":"AFETR","COUNTRY_CODE":"US","EPOCH":"2023-04-20T20:08:30.253920","APOAPSIS":"540.876","ECCENTRICITY":"0.00016400","TLE_LINE2":"2 53713  53.2150 304.6382 0001640  79.9603 280.1575 15.08841154 35315","PERIAPSIS":"538.607","REF_FRAME":"TEME","CENTER_NAME":"EARTH","PERIOD":"95.437","SEMIMAJOR_AXIS":"6917.877","LAUNCH_DATE":"2022-09-05","EPHEMERIS_TYPE":"0","DECAY_DATE":null,"MEAN_MOTION_DOT":"0.00000396","BSTAR":"0.00004296500000","MEAN_ELEMENT_THEORY":"SGP4","INCLINATION":"53.2150","ELEMENT_SET_NO":"999","MEAN_ANOMALY":"280.1575","NORAD_CAT_ID":"53713","CLASSIFICATION_TYPE":"U"},{"COUNTRY_CODE":"US","APOAPSIS":"540.334","EPOCH":"2023-04-20T15:38:56.425344","OBJECT_NAME":"STARLINK-4688","SITE":"AFETR","RCS_SIZE":"LARGE","FILE":"3891109","GP_ID":"230462566","MEAN_MOTION":"15.08837225","OBJECT_TYPE":"PAYLOAD","OBJECT_ID":"2022-107Q","MEAN_MOTION_DDOT":"0.0000000000000","TLE_LINE1":"1 53714U 22107Q   23110.65204196  .00016957  00000-0  10810-2 0  9992","REV_AT_EPOCH":"3563","ARG_OF_PERICENTER":"89.9763","RA_OF_ASC_NODE":"280.6580","TIME_SYSTEM":"UTC","MEAN_ANOMALY":"270.1325","ELEMENT_SET_NO":"999","INCLINATION":"53.2142","CLASSIFICATION_TYPE":"U","NORAD_CAT_ID":"53714","EPHEMERIS_TYPE":"0","MEAN_ELEMENT_THEORY":"SGP4","BSTAR":"0.00108100000000","MEAN_MOTION_DOT":"0.00016957","DECAY_DATE":null,"SEMIMAJOR_AXIS":"6917.889","PERIOD":"95.438","CENTER_NAME":"EARTH","LAUNCH_DATE":"2022-09-05","ECCENTRICITY":"0.00008390","REF_FRAME":"TEME","PERIAPSIS":"539.173","TLE_LINE2":"2 53714  53.2142 280.6580 0000839  89.9763 270.1325 15.08837225 35638"},{"EPHEMERIS_TYPE":"0","MEAN_MOTION_DOT":"0.00000393","DECAY_DATE":null,"BSTAR":"0.00004277200000","MEAN_ELEMENT_THEORY":"SGP4","ELEMENT_SET_NO":"999","INCLINATION":"53.2156","MEAN_ANOMALY":"279.8707","NORAD_CAT_ID":"53715","CLASSIFICATION_TYPE":"U","ECCENTRICITY":"0.00012210","PERIAPSIS":"538.906","REF_FRAME":"TEME","TLE_LINE2":"2 53715  53.2156 307.3829 0001221  80.2423 279.8707 15.08838357 35233","CENTER_NAME":"EARTH","SEMIMAJOR_AXIS":"6917.885","PERIOD":"95.438","LAUNCH_DATE":"2022-09-05","OBJECT_NAME":"STARLINK-4686","RCS_SIZE":"LARGE","SITE":"AFETR","COUNTRY_CODE":"US","APOAPSIS":"540.595","EPOCH":"2023-04-20T06:05:57.038496","ARG_OF_PERICENTER":"80.2423","RA_OF_ASC_NODE":"307.3829","REV_AT_EPOCH":"3523","TIME_SYSTEM":"UTC","MEAN_MOTION":"15.08838357","OBJECT_ID":"2022-107R","OBJECT_TYPE":"PAYLOAD","FILE":"3890827","GP_ID":"230430291","MEAN_MOTION_DDOT":"0.0000000000000","TLE_LINE1":"1 53715U 22107R   23110.25413239  .00000393  00000-0  42772-4 0  9990"},{"RCS_SIZE":"LARGE","SITE":"AFETR","OBJECT_NAME":"STARLINK-4699","EPOCH":"2023-04-20T12:22:11.443872","APOAPSIS":"540.761","COUNTRY_CODE":"US","TIME_SYSTEM":"UTC","RA_OF_ASC_NODE":"306.1738","ARG_OF_PERICENTER":"92.4099","REV_AT_EPOCH":"3481","TLE_LINE1":"1 53716U 22107S   23110.51541023  .00002014  00000-0  14459-3 0  9995","MEAN_MOTION_DDOT":"0.0000000000000","OBJECT_TYPE":"PAYLOAD","OBJECT_ID":"2022-107S","MEAN_MOTION":"15.08837596","GP_ID":"230436708","FILE":"3891011","DECAY_DATE":null,"MEAN_MOTION_DOT":"0.00002014","BSTAR":"0.00014459000000","MEAN_ELEMENT_THEORY":"SGP4","EPHEMERIS_TYPE":"0","NORAD_CAT_ID":"53716","CLASSIFICATION_TYPE":"U","INCLINATION":"53.2178","ELEMENT_SET_NO":"999","MEAN_ANOMALY":"267.7060","TLE_LINE2":"2 53716  53.2178 306.1738 0001457  92.4099 267.7060 15.08837596 34814","PERIAPSIS":"538.745","REF_FRAME":"TEME","ECCENTRICITY":"0.00014570","LAUNCH_DATE":"2022-09-05","CENTER_NAME":"EARTH","PERIOD":"95.438","SEMIMAJOR_AXIS":"6917.888"},{"TLE_LINE2":"2 53718  53.2155 304.6642 0001263 103.7033 256.4100 15.08830174 35318","PERIAPSIS":"538.902","REF_FRAME":"TEME","ECCENTRICITY":"0.00012630","LAUNCH_DATE":"2022-09-05","CENTER_NAME":"EARTH","PERIOD":"95.438","SEMIMAJOR_AXIS":"6917.910","DECAY_DATE":null,"MEAN_MOTION_DOT":"-0.00000448","BSTAR":"-0.00001008000000","MEAN_ELEMENT_THEORY":"SGP4","EPHEMERIS_TYPE":"0","NORAD_CAT_ID":"53718","CLASSIFICATION_TYPE":"U","INCLINATION":"53.2155","ELEMENT_SET_NO":"999","MEAN_ANOMALY":"256.4100","TIME_SYSTEM":"UTC","RA_OF_ASC_NODE":"304.6642","ARG_OF_PERICENTER":"103.7033","REV_AT_EPOCH":"3531","TLE_LINE1":"1 53718U 22107U   23110.84294180 -.00000448  00000-0 -10080-4 0  9990","MEAN_MOTION_DDOT":"0.0000000000000","OBJECT_TYPE":"PAYLOAD","OBJECT_ID":"2022-107U","MEAN_MOTION":"15.08830174","GP_ID":"230462815","FILE":"3891109","RCS_SIZE":"LARGE","SITE":"AFETR","OBJECT_NAME":"STARLINK-4695","EPOCH":"2023-04-20T20:13:50.171520","APOAPSIS":"540.649","COUNTRY_CODE":"US"}];
